ONEWEB-0361             
1 49287U 21090J   24062.94540699  .00000027  00000+0  33863-4 0  9997
2 49287  87.9125  80.8740 0002074  93.2878 266.8492 13.20771847119919
ONEWEB-0362             
1 49288U 21090K   24063.22127117  .00000067  00000+0  13496-3 0  9999
2 49288  87.9139 111.3970 0001649  91.4470 268.6851 13.19726048117474
ONEWEB-0363             
1 49289U 21090L   24062.58240362  .00000048  00000+0  85560-4 0  9997
2 49289  87.9125  80.9418 0002233 101.2377 258.9007 13.20771980119872
ONEWEB-0364             
1 49290U 21090M   24062.54452531  .00000058  00000+0  11071-3 0  9994
2 49290  87.9127  80.9727 0002092  87.3076 272.8297 13.20771499121001
ONEWEB-0365             
1 49291U 21090N   24062.70003339  .00000065  00000+0  12947-3 0  9992
2 49291  87.9132 111.4882 0001883  93.7329 266.4019 13.19725457116094
ONEWEB-0366             
1 49292U 21090P   24062.59696382 -.00000008  00000+0 -56352-4 0  9994
2 49292  87.8904  96.2255 0002131  92.5830 267.5544 13.14501369118957
ONEWEB-0367             
1 49293U 21090Q   24062.58082366  .00000014  00000+0  35697-5 0  9990
2 49293  87.9125  80.9364 0002142  86.3626 273.7752 13.20772102119392
ONEWEB-0368             
1 49294U 21090R   24063.08429380  .00000034  00000+0  52622-4 0  9996
2 49294  87.9127  80.8646 0002798  88.7154 271.4300 13.20771225121916
