<?xml version="1.0" encoding="UTF-8"?>
<ndm xmlns:xsi="http://www.w3.org/2001/XMLSchema-instance" xsi:noNamespaceSchemaLocation="https://sanaregistry.org/r/ndmxml_unqualified/ndmxml-2.0.0-master-2.0.xsd">
<omm id="CCSDS_OMM_VERS" version="2.0">
<header><CREATION_DATE/><ORIGINATOR/></header><body><segment><metadata><OBJECT_NAME>ONEWEB-0361</OBJECT_NAME><OBJECT_ID>2021-090J</OBJECT_ID><CENTER_NAME>EARTH</CENTER_NAME><REF_FRAME>TEME</REF_FRAME><TIME_SYSTEM>UTC</TIME_SYSTEM><MEAN_ELEMENT_THEORY>SGP4</MEAN_ELEMENT_THEORY></metadata><data><meanElements><EPOCH>2024-03-02T22:41:23.163936</EPOCH><MEAN_MOTION>13.20771847</MEAN_MOTION><ECCENTRICITY>.0002074</ECCENTRICITY><INCLINATION>87.9125</INCLINATION><RA_OF_ASC_NODE>80.8740</RA_OF_ASC_NODE><ARG_OF_PERICENTER>93.2878</ARG_OF_PERICENTER><MEAN_ANOMALY>266.8492</MEAN_ANOMALY></meanElements><tleParameters><EPHEMERIS_TYPE>0</EPHEMERIS_TYPE><CLASSIFICATION_TYPE>U</CLASSIFICATION_TYPE><NORAD_CAT_ID>49287</NORAD_CAT_ID><ELEMENT_SET_NO>999</ELEMENT_SET_NO><REV_AT_EPOCH>11991</REV_AT_EPOCH><BSTAR>.33863E-4</BSTAR><MEAN_MOTION_DOT>.27E-6</MEAN_MOTION_DOT><MEAN_MOTION_DDOT>0</MEAN_MOTION_DDOT></tleParameters></data></segment></body></omm>
<omm id="CCSDS_OMM_VERS" version="2.0">
<header><CREATION_DATE/><ORIGINATOR/></header><body><segment><metadata><OBJECT_NAME>ONEWEB-0362</OBJECT_NAME><OBJECT_ID>2021-090K</OBJECT_ID><CENTER_NAME>EARTH</CENTER_NAME><REF_FRAME>TEME</REF_FRAME><TIME_SYSTEM>UTC</TIME_SYSTEM><MEAN_ELEMENT_THEORY>SGP4</MEAN_ELEMENT_THEORY></metadata><data><meanElements><EPOCH>2024-03-03T05:18:37.829088</EPOCH><MEAN_MOTION>13.19726048</MEAN_MOTION><ECCENTRICITY>.0001649</ECCENTRICITY><INCLINATION>87.9139</INCLINATION><RA_OF_ASC_NODE>111.3970</RA_OF_ASC_NODE><ARG_OF_PERICENTER>91.4470</ARG_OF_PERICENTER><MEAN_ANOMALY>268.6851</MEAN_ANOMALY></meanElements><tleParameters><EPHEMERIS_TYPE>0</EPHEMERIS_TYPE><CLASSIFICATION_TYPE>U</CLASSIFICATION_TYPE><NORAD_CAT_ID>49288</NORAD_CAT_ID><ELEMENT_SET_NO>999</ELEMENT_SET_NO><REV_AT_EPOCH>11747</REV_AT_EPOCH><BSTAR>.13496E-3</BSTAR><MEAN_MOTION_DOT>.67E-6</MEAN_MOTION_DOT><MEAN_MOTION_DDOT>0</MEAN_MOTION_DDOT></tleParameters></data></segment></body></omm>
<omm id="CCSDS_OMM_VERS" version="2.0">
<header><CREATION_DATE/><ORIGINATOR/></header><body><segment><metadata><OBJECT_NAME>ONEWEB-0363</OBJECT_NAME><OBJECT_ID>2021-090L</OBJECT_ID><CENTER_NAME>EARTH</CENTER_NAME><REF_FRAME>TEME</REF_FRAME><TIME_SYSTEM>UTC</TIME_SYSTEM><MEAN_ELEMENT_THEORY>SGP4</MEAN_ELEMENT_THEORY></metadata><data><meanElements><EPOCH>2024-03-02T13:58:39.672768</EPOCH><MEAN_MOTION>13.20771980</MEAN_MOTION><ECCENTRICITY>.0002233</ECCENTRICITY><INCLINATION>87.9125</INCLINATION><RA_OF_ASC_NODE>80.9418</RA_OF_ASC_NODE><ARG_OF_PERICENTER>101.2377</ARG_OF_PERICENTER><MEAN_ANOMALY>258.9007</MEAN_ANOMALY></meanElements><tleParameters><EPHEMERIS_TYPE>0</EPHEMERIS_TYPE><CLASSIFICATION_TYPE>U</CLASSIFICATION_TYPE><NORAD_CAT_ID>49289</NORAD_CAT_ID><ELEMENT_SET_NO>999</ELEMENT_SET_NO><REV_AT_EPOCH>11987</REV_AT_EPOCH><BSTAR>.8556E-4</BSTAR><MEAN_MOTION_DOT>.48E-6</MEAN_MOTION_DOT><MEAN_MOTION_DDOT>0</MEAN_MOTION_DDOT></tleParameters></data></segment></body></omm>
<omm id="CCSDS_OMM_VERS" version="2.0">
<header><CREATION_DATE/><ORIGINATOR/></header><body><segment><metadata><OBJECT_NAME>ONEWEB-0364</OBJECT_NAME><OBJECT_ID>2021-090M</OBJECT_ID><CENTER_NAME>EARTH</CENTER_NAME><REF_FRAME>TEME</REF_FRAME><TIME_SYSTEM>UTC</TIME_SYSTEM><MEAN_ELEMENT_THEORY>SGP4</MEAN_ELEMENT_THEORY></metadata><data><meanElements><EPOCH>2024-03-02T13:04:06.986784</EPOCH><MEAN_MOTION>13.20771499</MEAN_MOTION><ECCENTRICITY>.0002092</ECCENTRICITY><INCLINATION>87.9127</INCLINATION><RA_OF_ASC_NODE>80.9727</RA_OF_ASC_NODE><ARG_OF_PERICENTER>87.3076</ARG_OF_PERICENTER><MEAN_ANOMALY>272.8297</MEAN_ANOMALY></meanElements><tleParameters><EPHEMERIS_TYPE>0</EPHEMERIS_TYPE><CLASSIFICATION_TYPE>U</CLASSIFICATION_TYPE><NORAD_CAT_ID>49290</NORAD_CAT_ID><ELEMENT_SET_NO>999</ELEMENT_SET_NO><REV_AT_EPOCH>12100</REV_AT_EPOCH><BSTAR>.11071E-3</BSTAR><MEAN_MOTION_DOT>.58E-6</MEAN_MOTION_DOT><MEAN_MOTION_DDOT>0</MEAN_MOTION_DDOT></tleParameters></data></segment></body></omm>
<omm id="CCSDS_OMM_VERS" version="2.0">
<header><CREATION_DATE/><ORIGINATOR/></header><body><segment><metadata><OBJECT_NAME>ONEWEB-0365</OBJECT_NAME><OBJECT_ID>2021-090N</OBJECT_ID><CENTER_NAME>EARTH</CENTER_NAME><REF_FRAME>TEME</REF_FRAME><TIME_SYSTEM>UTC</TIME_SYSTEM><MEAN_ELEMENT_THEORY>SGP4</MEAN_ELEMENT_THEORY></metadata><data><meanElements><EPOCH>2024-03-02T16:48:02.884896</EPOCH><MEAN_MOTION>13.19725457</MEAN_MOTION><ECCENTRICITY>.0001883</ECCENTRICITY><INCLINATION>87.9132</INCLINATION><RA_OF_ASC_NODE>111.4882</RA_OF_ASC_NODE><ARG_OF_PERICENTER>93.7329</ARG_OF_PERICENTER><MEAN_ANOMALY>266.4019</MEAN_ANOMALY></meanElements><tleParameters><EPHEMERIS_TYPE>0</EPHEMERIS_TYPE><CLASSIFICATION_TYPE>U</CLASSIFICATION_TYPE><NORAD_CAT_ID>49291</NORAD_CAT_ID><ELEMENT_SET_NO>999</ELEMENT_SET_NO><REV_AT_EPOCH>11609</REV_AT_EPOCH><BSTAR>.12947E-3</BSTAR><MEAN_MOTION_DOT>.65E-6</MEAN_MOTION_DOT><MEAN_MOTION_DDOT>0</MEAN_MOTION_DDOT></tleParameters></data></segment></body></omm>
<omm id="CCSDS_OMM_VERS" version="2.0">
<header><CREATION_DATE/><ORIGINATOR/></header><body><segment><metadata><OBJECT_NAME>ONEWEB-0366</OBJECT_NAME><OBJECT_ID>2021-090P</OBJECT_ID><CENTER_NAME>EARTH</CENTER_NAME><REF_FRAME>TEME</REF_FRAME><TIME_SYSTEM>UTC</TIME_SYSTEM><MEAN_ELEMENT_THEORY>SGP4</MEAN_ELEMENT_THEORY></metadata><data><meanElements><EPOCH>2024-03-02T14:19:37.674048</EPOCH><MEAN_MOTION>13.14501369</MEAN_MOTION><ECCENTRICITY>.0002131</ECCENTRICITY><INCLINATION>87.8904</INCLINATION><RA_OF_ASC_NODE>96.2255</RA_OF_ASC_NODE><ARG_OF_PERICENTER>92.5830</ARG_OF_PERICENTER><MEAN_ANOMALY>267.5544</MEAN_ANOMALY></meanElements><tleParameters><EPHEMERIS_TYPE>0</EPHEMERIS_TYPE><CLASSIFICATION_TYPE>U</CLASSIFICATION_TYPE><NORAD_CAT_ID>49292</NORAD_CAT_ID><ELEMENT_SET_NO>999</ELEMENT_SET_NO><REV_AT_EPOCH>11895</REV_AT_EPOCH><BSTAR>-.56352E-4</BSTAR><MEAN_MOTION_DOT>-.8E-7</MEAN_MOTION_DOT><MEAN_MOTION_DDOT>0</MEAN_MOTION_DDOT></tleParameters></data></segment></body></omm>
<omm id="CCSDS_OMM_VERS" version="2.0">
<header><CREATION_DATE/><ORIGINATOR/></header><body><segment><metadata><OBJECT_NAME>ONEWEB-0367</OBJECT_NAME><OBJECT_ID>2021-090Q</OBJECT_ID><CENTER_NAME>EARTH</CENTER_NAME><REF_FRAME>TEME</REF_FRAME><TIME_SYSTEM>UTC</TIME_SYSTEM><MEAN_ELEMENT_THEORY>SGP4</MEAN_ELEMENT_THEORY></metadata><data><meanElements><EPOCH>2024-03-02T13:56:23.164224</EPOCH><MEAN_MOTION>13.20772102</MEAN_MOTION><ECCENTRICITY>.0002142</ECCENTRICITY><INCLINATION>87.9125</INCLINATION><RA_OF_ASC_NODE>80.9364</RA_OF_ASC_NODE><ARG_OF_PERICENTER>86.3626</ARG_OF_PERICENTER><MEAN_ANOMALY>273.7752</MEAN_ANOMALY></meanElements><tleParameters><EPHEMERIS_TYPE>0</EPHEMERIS_TYPE><CLASSIFICATION_TYPE>U</CLASSIFICATION_TYPE><NORAD_CAT_ID>49293</NORAD_CAT_ID><ELEMENT_SET_NO>999</ELEMENT_SET_NO><REV_AT_EPOCH>11939</REV_AT_EPOCH><BSTAR>.35697E-5</BSTAR><MEAN_MOTION_DOT>.14E-6</MEAN_MOTION_DOT><MEAN_MOTION_DDOT>0</MEAN_MOTION_DDOT></tleParameters></data></segment></body></omm>
<omm id="CCSDS_OMM_VERS" version="2.0">
<header><CREATION_DATE/><ORIGINATOR/></header><body><segment><metadata><OBJECT_NAME>ONEWEB-0368</OBJECT_NAME><OBJECT_ID>2021-090R</OBJECT_ID><CENTER_NAME>EARTH</CENTER_NAME><REF_FRAME>TEME</REF_FRAME><TIME_SYSTEM>UTC</TIME_SYSTEM><MEAN_ELEMENT_THEORY>SGP4</MEAN_ELEMENT_THEORY></metadata><data><meanElements><EPOCH>2024-03-03T02:01:22.984320</EPOCH><MEAN_MOTION>13.20771225</MEAN_MOTION><ECCENTRICITY>.0002798</ECCENTRICITY><INCLINATION>87.9127</INCLINATION><RA_OF_ASC_NODE>80.8646</RA_OF_ASC_NODE><ARG_OF_PERICENTER>88.7154</ARG_OF_PERICENTER><MEAN_ANOMALY>271.4300</MEAN_ANOMALY></meanElements><tleParameters><EPHEMERIS_TYPE>0</EPHEMERIS_TYPE><CLASSIFICATION_TYPE>U</CLASSIFICATION_TYPE><NORAD_CAT_ID>49294</NORAD_CAT_ID><ELEMENT_SET_NO>999</ELEMENT_SET_NO><REV_AT_EPOCH>12191</REV_AT_EPOCH><BSTAR>.52622E-4</BSTAR><MEAN_MOTION_DOT>.34E-6</MEAN_MOTION_DOT><MEAN_MOTION_DDOT>0</MEAN_MOTION_DDOT></tleParameters></data></segment></body></omm>

</ndm>
